[{"OBJECT_NAME":"STARLINK-37288","OBJECT_ID":"2026-070K","EPOCH":"2026-04-28T18:11:06.421344","MEAN_MOTION":15.80990984,"ECCENTRICITY":0.0002413,"INCLINATION":53.1566,"RA_OF_ASC_NODE":133.3756,"ARG_OF_PERICENTER":75.1687,"MEAN_ANOMALY":284.9603,"EPHEMERIS_TYPE":0,"CLASSIFICATION_TYPE":"U","NORAD_CAT_ID":68551,"ELEMENT_SET_NO":999,"REV_AT_EPOCH":417,"BSTAR":0.0018349,"MEAN_MOTION_DOT":0.00379889,"MEAN_MOTION_DDOT":0},{"OBJECT_NAME":"STARLINK-37295","OBJECT_ID":"2026-070L","EPOCH":"2026-04-28T18:13:15.959136","MEAN_MOTION":15.80969036,"ECCENTRICITY":0.000151,"INCLINATION":53.157,"RA_OF_ASC_NODE":133.3848,"ARG_OF_PERICENTER":84.9639,"MEAN_ANOMALY":275.1556,"EPHEMERIS_TYPE":0,"CLASSIFICATION_TYPE":"U","NORAD_CAT_ID":68552,"ELEMENT_SET_NO":999,"REV_AT_EPOCH":417,"BSTAR":0.0018184,"MEAN_MOTION_DOT":0.0037592,"MEAN_MOTION_DDOT":0},{"OBJECT_NAME":"STARLINK-37254","OBJECT_ID":"2026-070M","EPOCH":"2026-04-28T16:00:01.998720","MEAN_MOTION":15.80903357,"ECCENTRICITY":0.0001482,"INCLINATION":53.1564,"RA_OF_ASC_NODE":133.8152,"ARG_OF_PERICENTER":89.5626,"MEAN_ANOMALY":120.7892,"EPHEMERIS_TYPE":0,"CLASSIFICATION_TYPE":"U","NORAD_CAT_ID":68553,"ELEMENT_SET_NO":999,"REV_AT_EPOCH":541,"BSTAR":-0.00032123,"MEAN_MOTION_DOT":-0.00063725,"MEAN_MOTION_DDOT":0},{"OBJECT_NAME":"STARLINK-37255","OBJECT_ID":"2026-070N","EPOCH":"2026-04-27T13:17:05.294400","MEAN_MOTION":15.80958818,"ECCENTRICITY":6.003e-5,"INCLINATION":53.1583,"RA_OF_ASC_NODE":139.3767,"ARG_OF_PERICENTER":107.5885,"MEAN_ANOMALY":252.5204,"EPHEMERIS_TYPE":0,"CLASSIFICATION_TYPE":"U","NORAD_CAT_ID":68554,"ELEMENT_SET_NO":999,"REV_AT_EPOCH":398,"BSTAR":0.0012623384,"MEAN_MOTION_DOT":0.00257024,"MEAN_MOTION_DDOT":0},{"OBJECT_NAME":"STARLINK-37146","OBJECT_ID":"2026-070P","EPOCH":"2026-04-28T18:10:01.216992","MEAN_MOTION":15.8097361,"ECCENTRICITY":0.0001354,"INCLINATION":53.1567,"RA_OF_ASC_NODE":133.3705,"ARG_OF_PERICENTER":65.9699,"MEAN_ANOMALY":294.1465,"EPHEMERIS_TYPE":0,"CLASSIFICATION_TYPE":"U","NORAD_CAT_ID":68555,"ELEMENT_SET_NO":999,"REV_AT_EPOCH":417,"BSTAR":0.0013775,"MEAN_MOTION_DOT":0.00281521,"MEAN_MOTION_DDOT":0},{"OBJECT_NAME":"STARLINK-37144","OBJECT_ID":"2026-070Q","EPOCH":"2026-04-28T18:05:42.786816","MEAN_MOTION":15.80914623,"ECCENTRICITY":0.0001839,"INCLINATION":53.1569,"RA_OF_ASC_NODE":133.3501,"ARG_OF_PERICENTER":60.8957,"MEAN_ANOMALY":299.2249,"EPHEMERIS_TYPE":0,"CLASSIFICATION_TYPE":"U","NORAD_CAT_ID":68556,"ELEMENT_SET_NO":999,"REV_AT_EPOCH":417,"BSTAR":0.0011059,"MEAN_MOTION_DOT":0.00223758,"MEAN_MOTION_DDOT":0},{"OBJECT_NAME":"STARLINK-37210","OBJECT_ID":"2026-070R","EPOCH":"2026-04-28T18:06:46.728000","MEAN_MOTION":15.80911289,"ECCENTRICITY":0.0001746,"INCLINATION":53.1578,"RA_OF_ASC_NODE":133.3554,"ARG_OF_PERICENTER":83.3198,"MEAN_ANOMALY":276.8023,"EPHEMERIS_TYPE":0,"CLASSIFICATION_TYPE":"U","NORAD_CAT_ID":68557,"ELEMENT_SET_NO":999,"REV_AT_EPOCH":417,"BSTAR":0.0015423,"MEAN_MOTION_DOT":0.00315651,"MEAN_MOTION_DDOT":0},{"OBJECT_NAME":"STARLINK-37227","OBJECT_ID":"2026-070S","EPOCH":"2026-04-28T18:04:37.233408","MEAN_MOTION":15.80979699,"ECCENTRICITY":0.0001319,"INCLINATION":53.1566,"RA_OF_ASC_NODE":133.3449,"ARG_OF_PERICENTER":95.3973,"MEAN_ANOMALY":264.72,"EPHEMERIS_TYPE":0,"CLASSIFICATION_TYPE":"U","NORAD_CAT_ID":68558,"ELEMENT_SET_NO":999,"REV_AT_EPOCH":417,"BSTAR":0.0015146,"MEAN_MOTION_DOT":0.00310758,"MEAN_MOTION_DDOT":0},{"OBJECT_NAME":"STARLINK-37294","OBJECT_ID":"2026-070T","EPOCH":"2026-04-27T13:12:45.613152","MEAN_MOTION":15.81081671,"ECCENTRICITY":0.00042173,"INCLINATION":53.1569,"RA_OF_ASC_NODE":139.356,"ARG_OF_PERICENTER":2.5589,"MEAN_ANOMALY":357.5455,"EPHEMERIS_TYPE":0,"CLASSIFICATION_TYPE":"U","NORAD_CAT_ID":68559,"ELEMENT_SET_NO":999,"REV_AT_EPOCH":398,"BSTAR":0.0026696602,"MEAN_MOTION_DOT":0.00567772,"MEAN_MOTION_DDOT":0},{"OBJECT_NAME":"STARLINK-37291","OBJECT_ID":"2026-070U","EPOCH":"2026-04-28T18:02:29.432256","MEAN_MOTION":15.80954175,"ECCENTRICITY":9.82e-5,"INCLINATION":53.157,"RA_OF_ASC_NODE":133.3349,"ARG_OF_PERICENTER":101.5596,"MEAN_ANOMALY":258.5537,"EPHEMERIS_TYPE":0,"CLASSIFICATION_TYPE":"U","NORAD_CAT_ID":68560,"ELEMENT_SET_NO":999,"REV_AT_EPOCH":417,"BSTAR":0.0017896,"MEAN_MOTION_DOT":0.00369442,"MEAN_MOTION_DDOT":0},{"OBJECT_NAME":"STARLINK-37114","OBJECT_ID":"2026-070V","EPOCH":"2026-04-28T18:01:22.658016","MEAN_MOTION":15.8097581,"ECCENTRICITY":0.0001382,"INCLINATION":53.1566,"RA_OF_ASC_NODE":133.3297,"ARG_OF_PERICENTER":106.924,"MEAN_ANOMALY":253.1934,"EPHEMERIS_TYPE":0,"CLASSIFICATION_TYPE":"U","NORAD_CAT_ID":68561,"ELEMENT_SET_NO":999,"REV_AT_EPOCH":417,"BSTAR":0.0013928,"MEAN_MOTION_DOT":0.00284809,"MEAN_MOTION_DDOT":0},{"OBJECT_NAME":"STARLINK-37233","OBJECT_ID":"2026-070W","EPOCH":"2026-04-28T05:50:54.333888","MEAN_MOTION":15.8090134,"ECCENTRICITY":0.000388,"INCLINATION":53.158,"RA_OF_ASC_NODE":135.8495,"ARG_OF_PERICENTER":164.3117,"MEAN_ANOMALY":195.8027,"EPHEMERIS_TYPE":0,"CLASSIFICATION_TYPE":"U","NORAD_CAT_ID":68562,"ELEMENT_SET_NO":999,"REV_AT_EPOCH":409,"BSTAR":0.0021501,"MEAN_MOTION_DOT":0.00446989,"MEAN_MOTION_DDOT":0},{"OBJECT_NAME":"STARLINK-36238","OBJECT_ID":"2026-070X","EPOCH":"2026-04-28T17:59:13.046784","MEAN_MOTION":15.80971564,"ECCENTRICITY":0.0001278,"INCLINATION":53.1564,"RA_OF_ASC_NODE":133.3194,"ARG_OF_PERICENTER":57.2709,"MEAN_ANOMALY":302.8437,"EPHEMERIS_TYPE":0,"CLASSIFICATION_TYPE":"U","NORAD_CAT_ID":68563,"ELEMENT_SET_NO":999,"REV_AT_EPOCH":417,"BSTAR":0.0016242,"MEAN_MOTION_DOT":0.00334098,"MEAN_MOTION_DDOT":0},{"OBJECT_NAME":"STARLINK-37008","OBJECT_ID":"2026-070Y","EPOCH":"2026-04-28T17:58:08.220864","MEAN_MOTION":15.80952871,"ECCENTRICITY":0.0001604,"INCLINATION":53.1574,"RA_OF_ASC_NODE":133.315,"ARG_OF_PERICENTER":91.2703,"MEAN_ANOMALY":268.8504,"EPHEMERIS_TYPE":0,"CLASSIFICATION_TYPE":"U","NORAD_CAT_ID":68564,"ELEMENT_SET_NO":999,"REV_AT_EPOCH":417,"BSTAR":0.0015323,"MEAN_MOTION_DOT":0.00314148,"MEAN_MOTION_DDOT":0},{"OBJECT_NAME":"STARLINK-37161","OBJECT_ID":"2026-070Z","EPOCH":"2026-04-28T17:57:02.543904","MEAN_MOTION":15.81093785,"ECCENTRICITY":0.0002754,"INCLINATION":53.1567,"RA_OF_ASC_NODE":133.3096,"ARG_OF_PERICENTER":55.9592,"MEAN_ANOMALY":304.1692,"EPHEMERIS_TYPE":0,"CLASSIFICATION_TYPE":"U","NORAD_CAT_ID":68565,"ELEMENT_SET_NO":999,"REV_AT_EPOCH":417,"BSTAR":0.0016398,"MEAN_MOTION_DOT":0.00339435,"MEAN_MOTION_DDOT":0},{"OBJECT_NAME":"STARLINK-37212","OBJECT_ID":"2026-070AA","EPOCH":"2026-04-28T17:55:58.219104","MEAN_MOTION":15.80956437,"ECCENTRICITY":0.0001098,"INCLINATION":53.1565,"RA_OF_ASC_NODE":133.3048,"ARG_OF_PERICENTER":71.5752,"MEAN_ANOMALY":288.539,"EPHEMERIS_TYPE":0,"CLASSIFICATION_TYPE":"U","NORAD_CAT_ID":68566,"ELEMENT_SET_NO":999,"REV_AT_EPOCH":417,"BSTAR":0.0010625,"MEAN_MOTION_DOT":0.00215136,"MEAN_MOTION_DDOT":0},{"OBJECT_NAME":"STARLINK-37261","OBJECT_ID":"2026-070AB","EPOCH":"2026-04-28T17:54:53.775072","MEAN_MOTION":15.80990456,"ECCENTRICITY":0.0001424,"INCLINATION":53.1571,"RA_OF_ASC_NODE":133.2983,"ARG_OF_PERICENTER":77.5876,"MEAN_ANOMALY":282.5306,"EPHEMERIS_TYPE":0,"CLASSIFICATION_TYPE":"U","NORAD_CAT_ID":68567,"ELEMENT_SET_NO":999,"REV_AT_EPOCH":417,"BSTAR":0.0015748,"MEAN_MOTION_DOT":0.00323791,"MEAN_MOTION_DDOT":0}]
