STARLINK-37288          
1 68551U 26070K   26118.75771321  .00379889  00000+0  18349-2 0  9991
2 68551  53.1566 133.3756 0002413  75.1687 284.9603 15.80990984  4172
STARLINK-37295          
1 68552U 26070L   26118.75921249  .00375920  00000+0  18184-2 0  9997
2 68552  53.1570 133.3848 0001510  84.9639 275.1556 15.80969036  4175
STARLINK-37254          
1 68553U 26070M   26118.66668980 -.00063725  00000+0 -32123-3 0  9997
2 68553  53.1564 133.8152 0001482  89.5626 120.7892 15.80903357  5417
STARLINK-37255          
1 68554U 26070N   26117.55353350  .00257024  00000+0  12623-2 0  9994
2 68554  53.1583 139.3767 0000600 107.5885 252.5204 15.80958818  3984
STARLINK-37146          
1 68555U 26070P   26118.75695853  .00281521  00000+0  13775-2 0  9993
2 68555  53.1567 133.3705 0001354  65.9699 294.1465 15.80973610  4170
STARLINK-37144          
1 68556U 26070Q   26118.75396744  .00223758  00000+0  11059-2 0  9992
2 68556  53.1569 133.3501 0001839  60.8957 299.2249 15.80914623  4171
STARLINK-37210          
1 68557U 26070R   26118.75470750  .00315651  00000+0  15423-2 0  9996
2 68557  53.1578 133.3554 0001746  83.3198 276.8023 15.80911289  4170
STARLINK-37227          
1 68558U 26070S   26118.75320872  .00310758  00000+0  15146-2 0  9991
2 68558  53.1566 133.3449 0001319  95.3973 264.7200 15.80979699  4173
STARLINK-37294          
1 68559U 26070T   26117.55052793  .00567772  00000+0  26697-2 0  9996
2 68559  53.1569 139.3560 0004217   2.5589 357.5455 15.81081671  3986
STARLINK-37291          
1 68560U 26070U   26118.75172954  .00369442  00000+0  17896-2 0  9998
2 68560  53.1570 133.3349 0000982 101.5596 258.5537 15.80954175  4172
STARLINK-37114          
1 68561U 26070V   26118.75095669  .00284809  00000+0  13928-2 0  9991
2 68561  53.1566 133.3297 0001382 106.9240 253.1934 15.80975810  4171
STARLINK-37233          
1 68562U 26070W   26118.24368442  .00446989  00000+0  21501-2 0  9993
2 68562  53.1580 135.8495 0003880 164.3117 195.8027 15.80901340  4094
STARLINK-36238          
1 68563U 26070X   26118.74945656  .00334098  00000+0  16242-2 0  9990
2 68563  53.1564 133.3194 0001278  57.2709 302.8437 15.80971564  4171
STARLINK-37008          
1 68564U 26070Y   26118.74870626  .00314148  00000+0  15323-2 0  9998
2 68564  53.1574 133.3150 0001604  91.2703 268.8504 15.80952871  4176
STARLINK-37161          
1 68565U 26070Z   26118.74794611  .00339435  00000+0  16398-2 0  9997
2 68565  53.1567 133.3096 0002754  55.9592 304.1692 15.81093785  4171
STARLINK-37212          
1 68566U 26070AA  26118.74720161  .00215136  00000+0  10625-2 0  9995
2 68566  53.1565 133.3048 0001098  71.5752 288.5390 15.80956437  4170
STARLINK-37261          
1 68567U 26070AB  26118.74645573  .00323791  00000+0  15748-2 0  9997
2 68567  53.1571 133.2983 0001424  77.5876 282.5306 15.80990456  4171
